COSMOS 2503             
1 40420U 15009A   26068.69626972  .00002817  00000+0  19590-3 0  9998
2 40420  97.8437 123.7175 0015321 225.7450 134.2520 15.06275973603958
STARLINK-5581           
1 55373U 23013AU  26068.39880008  .00001178  00000+0  10228-3 0  9992
2 55373  43.0042 315.0685 0001059 243.2960 116.7774 15.02526345171518
